OBJECT_NAME,OBJECT_ID,EPOCH,MEAN_MOTION,ECCENTRICITY,INCLINATION,RA_OF_ASC_NODE,ARG_OF_PERICENTER,MEAN_ANOMALY,EPHEMERIS_TYPE,CLASSIFICATION_TYPE,NORAD_CAT_ID,ELEMENT_SET_NO,REV_AT_EPOCH,BSTAR,MEAN_MOTION_DOT,MEAN_MOTION_DDOT
ONEWEB-0336,2021-083S,2026-07-15T08:50:11.740416,13.13469338,.0001837,87.8975,314.6189,90.1104,270.0236,0,U,49202,999,23461,-.50539837E-3,-.172E-5,0
ONEWEB-0337,2021-083T,2026-07-15T09:04:38.460288,13.13469833,.00020835,87.8975,314.6225,95.3747,264.7620,0,U,49203,999,23461,.38027132E-3,.152E-5,0
ONEWEB-0338,2021-083U,2026-07-15T05:20:35.058336,13.20771002,.00021452,87.9182,268.8599,107.3537,252.7831,0,U,49204,999,24051,.21635999E-3,.101E-5,0
ONEWEB-0339,2021-083V,2026-07-15T07:27:19.484352,13.13470030,.00021568,87.8977,314.6292,106.8962,253.2403,0,U,49205,999,23458,.8505733E-3,.323E-5,0
ONEWEB-0340,2021-083W,2026-07-15T10:27:03.159072,13.18687435,.00018671,87.9198,329.8391,93.9407,266.1939,0,U,49206,999,23369,.14252552E-4,.19E-6,0
ONEWEB-0341,2021-083X,2026-07-15T10:36:45.392256,13.18687687,.00023155,87.9192,329.8391,90.2558,269.8839,0,U,49207,999,23371,.60756297E-4,.37E-6,0
ONEWEB-0342,2021-083Y,2026-07-15T05:30:17.386560,13.20772316,.00021411,87.9189,268.8492,100.8565,259.2809,0,U,49208,999,24048,.14930999E-3,.74E-6,0
ONEWEB-0343,2021-083Z,2026-07-15T08:59:38.516640,13.18687711,.0002206,87.9192,329.8510,105.6237,254.5138,0,U,49209,999,23375,.64002901E-4,.38E-6,0
ONEWEB-0344,2021-083AA,2026-07-15T07:19:59.659104,13.13469745,.00022552,87.8976,314.6428,91.6270,268.5118,0,U,49210,999,23458,.51247125E-3,.2E-5,0
ONEWEB-0345,2021-083AB,2026-07-15T08:57:30.850272,13.13469411,.00022276,87.8985,314.6141,94.0353,266.1031,0,U,49211,999,23460,.24870478E-3,.104E-5,0
ONEWEB-0346,2021-083AC,2026-07-15T08:54:47.016000,13.18687951,.00015379,87.9189,329.8511,77.9852,282.1452,0,U,49212,999,23369,.27863699E-4,.24E-6,0
ONEWEB-0348,2021-083AD,2026-07-15T05:15:44.983296,13.20772294,.00021135,87.9187,268.8555,82.8480,277.2894,0,U,49213,999,24051,.32980781E-3,.147E-5,0
ONEWEB-0350,2021-083AE,2026-07-15T09:24:31.284000,13.13471659,.00016168,87.8982,314.6155,134.1114,226.0148,0,U,49214,999,23463,.88028685E-3,.334E-5,0
ONEWEB-0351,2021-083AF,2026-07-15T14:11:17.761056,13.20772181,.00025095,87.9191,268.7805,103.0225,257.1189,0,U,49215,999,24052,-.85459395E-3,-.334E-5,0
ONEWEB-0352,2021-083AG,2026-07-15T08:42:53.110944,13.13469622,.00022795,87.8977,314.6255,106.8589,253.2790,0,U,49216,999,23472,-.81503043E-3,-.285E-5,0
ONEWEB-0354,2021-083AH,2026-07-15T03:55:44.798880,13.20771080,.00021898,87.9186,268.8643,88.1248,272.0136,0,U,49217,999,24050,.2895044E-3,.131E-5,0
ONEWEB-0355,2021-083AJ,2026-07-15T14:54:36.221184,13.13468723,.0002139,87.8977,314.5749,100.0390,260.0981,0,U,49218,999,23463,.36589464E-3,.146E-5,0
ONEWEB-0357,2021-083AK,2026-07-15T05:39:58.560480,13.20769720,.00022478,87.9186,268.8437,101.4283,258.7103,0,U,49219,999,24051,.26078707E-3,.119E-5,0
ONEWEB-0332,2021-090A,2026-07-15T07:20:47.035680,13.14503519,.00020107,87.8967,284.1066,106.7375,253.3975,0,U,49279,999,23127,.71754063E-3,.279E-5,0
ONEWEB-0347,2021-090B,2026-07-15T05:25:26.095872,13.20769708,.00019981,87.9185,268.8534,105.8798,254.2556,0,U,49280,999,23474,.22380226E-3,.104E-5,0
ONEWEB-0349,2021-090C,2026-07-15T04:22:23.810592,13.20769456,.00020646,87.9187,268.8630,98.1906,261.9462,0,U,49281,999,23352,-.88132655E-4,-.23E-6,0
ONEWEB-0353,2021-090D,2026-07-15T07:09:22.173984,13.14502821,.00019712,87.8968,284.1044,107.9316,252.2029,0,U,49282,999,23127,.44468021E-3,.178E-5,0
ONEWEB-0356,2021-090E,2026-07-15T06:09:04.479840,13.20770045,.00012689,87.9185,268.8420,94.9661,265.1617,0,U,49283,999,23353,.52961508E-4,.35E-6,0
ONEWEB-0358,2021-090F,2026-07-15T14:17:31.915392,13.20775023,.00019178,87.9189,268.7813,95.3516,264.7836,0,U,49284,999,23430,.98036463E-3,.412E-5,0
ONEWEB-0359,2021-090G,2026-07-15T14:04:12.722304,13.20770106,.00021055,87.9187,268.7756,91.4576,268.6798,0,U,49285,999,23428,-.71645274E-4,-.16E-6,0
ONEWEB-0360,2021-090H,2026-07-15T04:44:14.629920,13.20771571,.00021751,87.9188,268.8593,98.8154,261.3226,0,U,49286,999,23354,-.8355955E-5,.1E-6,0
ONEWEB-0361,2021-090J,2026-07-15T06:06:38.511360,13.20772697,.00020326,87.9186,268.8468,95.5413,264.5952,0,U,49287,999,23400,.91143071E-4,.5E-6,0
ONEWEB-0362,2021-090K,2026-07-15T07:19:34.581504,13.19726306,.00022839,87.9185,299.3788,101.4514,258.6875,0,U,49288,999,23062,.17150326E-3,.82E-6,0
ONEWEB-0363,2021-090L,2026-07-15T04:39:22.875264,13.20772289,.00017425,87.9188,268.8587,94.7190,265.4143,0,U,49289,999,23400,.11216558E-3,.59E-6,0
ONEWEB-0364,2021-090M,2026-07-15T05:35:07.820160,13.20769888,.0002108,87.9184,268.8588,99.3619,260.7753,0,U,49290,999,23514,.20060452E-3,.95E-6,0
