ONEWEB-0336             
1 49202U 21083S   26196.36819144 -.00000172  00000+0 -50540-3 0  9999
2 49202  87.8975 314.6189 0001837  90.1104 270.0236 13.13469338234616
ONEWEB-0337             
1 49203U 21083T   26196.37822292  .00000152  00000+0  38027-3 0  9991
2 49203  87.8975 314.6225 0002083  95.3747 264.7620 13.13469833234619
ONEWEB-0338             
1 49204U 21083U   26196.22262799  .00000101  00000+0  21636-3 0  9998
2 49204  87.9182 268.8599 0002145 107.3537 252.7831 13.20771002240514
ONEWEB-0339             
1 49205U 21083V   26196.31064218  .00000323  00000+0  85057-3 0  9998
2 49205  87.8977 314.6292 0002156 106.8962 253.2403 13.13470030234584
ONEWEB-0340             
1 49206U 21083W   26196.43545323  .00000019  00000+0  14253-4 0  9996
2 49206  87.9198 329.8391 0001867  93.9407 266.1939 13.18687435233699
ONEWEB-0341             
1 49207U 21083X   26196.44219204  .00000037  00000+0  60756-4 0  9993
2 49207  87.9192 329.8391 0002315  90.2558 269.8839 13.18687687233711
ONEWEB-0342             
1 49208U 21083Y   26196.22936790  .00000074  00000+0  14931-3 0  9990
2 49208  87.9189 268.8492 0002141 100.8565 259.2809 13.20772316240484
ONEWEB-0343             
1 49209U 21083Z   26196.37475135  .00000038  00000+0  64003-4 0  9994
2 49209  87.9192 329.8510 0002206 105.6237 254.5138 13.18687711233755
ONEWEB-0344             
1 49210U 21083AA  26196.30555161  .00000200  00000+0  51247-3 0  9993
2 49210  87.8976 314.6428 0002255  91.6270 268.5118 13.13469745234586
ONEWEB-0345             
1 49211U 21083AB  26196.37327373  .00000104  00000+0  24870-3 0  9998
2 49211  87.8985 314.6141 0002227  94.0353 266.1031 13.13469411234608
ONEWEB-0346             
1 49212U 21083AC  26196.37137750  .00000024  00000+0  27864-4 0  9995
2 49212  87.9189 329.8511 0001537  77.9852 282.1452 13.18687951233691
ONEWEB-0348             
1 49213U 21083AD  26196.21927064  .00000147  00000+0  32981-3 0  9995
2 49213  87.9187 268.8555 0002113  82.8480 277.2894 13.20772294240515
ONEWEB-0350             
1 49214U 21083AE  26196.39202875  .00000334  00000+0  88029-3 0  9993
2 49214  87.8982 314.6155 0001616 134.1114 226.0148 13.13471659234639
ONEWEB-0351             
1 49215U 21083AF  26196.59117779 -.00000334  00000+0 -85459-3 0  9990
2 49215  87.9191 268.7805 0002509 103.0225 257.1189 13.20772181240521
ONEWEB-0352             
1 49216U 21083AG  26196.36311471 -.00000285  00000+0 -81503-3 0  9992
2 49216  87.8977 314.6255 0002279 106.8589 253.2790 13.13469622234726
ONEWEB-0354             
1 49217U 21083AH  26196.16371295  .00000131  00000+0  28950-3 0  9996
2 49217  87.9186 268.8643 0002189  88.1248 272.0136 13.20771080240503
ONEWEB-0355             
1 49218U 21083AJ  26196.62125256  .00000146  00000+0  36589-3 0  9995
2 49218  87.8977 314.5749 0002139 100.0390 260.0981 13.13468723234635
ONEWEB-0357             
1 49219U 21083AK  26196.23609445  .00000119  00000+0  26079-3 0  9993
2 49219  87.9186 268.8437 0002247 101.4283 258.7103 13.20769720240513
ONEWEB-0332             
1 49279U 21090A   26196.30609995  .00000279  00000+0  71754-3 0  9992
2 49279  87.8967 284.1066 0002010 106.7375 253.3975 13.14503519231278
ONEWEB-0347             
1 49280U 21090B   26196.22599648  .00000104  00000+0  22380-3 0  9996
2 49280  87.9185 268.8534 0001998 105.8798 254.2556 13.20769708234746
ONEWEB-0349             
1 49281U 21090C   26196.18222003 -.00000023  00000+0 -88133-4 0  9991
2 49281  87.9187 268.8630 0002064  98.1906 261.9462 13.20769456233522
ONEWEB-0353             
1 49282U 21090D   26196.29817331  .00000178  00000+0  44468-3 0  9999
2 49282  87.8968 284.1044 0001971 107.9316 252.2029 13.14502821231275
ONEWEB-0356             
1 49283U 21090E   26196.25630185  .00000035  00000+0  52962-4 0  9997
2 49283  87.9185 268.8420 0001268  94.9661 265.1617 13.20770045233531
ONEWEB-0358             
1 49284U 21090F   26196.59550828  .00000412  00000+0  98036-3 0  9990
2 49284  87.9189 268.7813 0001917  95.3516 264.7836 13.20775023234301
ONEWEB-0359             
1 49285U 21090G   26196.58625836 -.00000016  00000+0 -71645-4 0  9992
2 49285  87.9187 268.7756 0002105  91.4576 268.6798 13.20770106234283
ONEWEB-0360             
1 49286U 21090H   26196.19739155  .00000010  00000+0 -83560-5 0  9993
2 49286  87.9188 268.8593 0002175  98.8154 261.3226 13.20771571233546
ONEWEB-0361             
1 49287U 21090J   26196.25461240  .00000050  00000+0  91143-4 0  9996
2 49287  87.9186 268.8468 0002032  95.5413 264.5952 13.20772697234003
ONEWEB-0362             
1 49288U 21090K   26196.30526136  .00000082  00000+0  17150-3 0  9999
2 49288  87.9185 299.3788 0002283 101.4514 258.6875 13.19726306230620
ONEWEB-0363             
1 49289U 21090L   26196.19401476  .00000059  00000+0  11217-3 0  9998
2 49289  87.9188 268.8587 0001742  94.7190 265.4143 13.20772289234008
ONEWEB-0364             
1 49290U 21090M   26196.23272940  .00000095  00000+0  20060-3 0  9993
2 49290  87.9184 268.8588 0002108  99.3619 260.7753 13.20769888235143
